{"fetched_at":"2026-07-23T17:55:06.836Z","source":"https://celestrak.org/NORAD/elements/gp.php?GROUP=kuiper&FORMAT=JSON","constellation":"kuiper","records":[{"OBJECT_NAME":"KUIPER-00589","OBJECT_ID":"2026-151E","EPOCH":"2026-07-23T06:00:02.000160","CLASSIFICATION_TYPE":"U","MEAN_MOTION":15.3278038,"ECCENTRICITY":0.00050657,"INCLINATION":51.8761,"RA_OF_ASC_NODE":141.4847,"ARG_OF_PERICENTER":168.1269,"MEAN_ANOMALY":176.8612,"EPHEMERIS_TYPE":0,"NORAD_CAT_ID":69767,"ELEMENT_SET_NO":999,"REV_AT_EPOCH":389,"BSTAR":-0.038066242,"MEAN_MOTION_DOT":-0.01118571,"MEAN_MOTION_DDOT":0},{"OBJECT_NAME":"KUIPER-00598","OBJECT_ID":"2026-151F","EPOCH":"2026-07-23T01:57:58.543776","CLASSIFICATION_TYPE":"U","MEAN_MOTION":15.3428191,"ECCENTRICITY":0.00148167,"INCLINATION":51.8656,"RA_OF_ASC_NODE":142.57,"ARG_OF_PERICENTER":191.8219,"MEAN_ANOMALY":168.2421,"EPHEMERIS_TYPE":0,"NORAD_CAT_ID":69768,"ELEMENT_SET_NO":999,"REV_AT_EPOCH":322,"BSTAR":0.00073952808,"MEAN_MOTION_DOT":0.00024699,"MEAN_MOTION_DDOT":0},{"OBJECT_NAME":"KUIPER-00604","OBJECT_ID":"2026-151G","EPOCH":"2026-07-23T02:31:29.053632","CLASSIFICATION_TYPE":"U","MEAN_MOTION":15.38119408,"ECCENTRICITY":0.0002639,"INCLINATION":51.8797,"RA_OF_ASC_NODE":142.0067,"ARG_OF_PERICENTER":125.8861,"MEAN_ANOMALY":234.2372,"EPHEMERIS_TYPE":0,"NORAD_CAT_ID":69769,"ELEMENT_SET_NO":999,"REV_AT_EPOCH":323,"BSTAR":-0.0015640177,"MEAN_MOTION_DOT":-0.00059555,"MEAN_MOTION_DDOT":0},{"OBJECT_NAME":"KUIPER-00609","OBJECT_ID":"2026-151H","EPOCH":"2026-07-23T05:30:24.975936","CLASSIFICATION_TYPE":"U","MEAN_MOTION":15.38811111,"ECCENTRICITY":0.00011178,"INCLINATION":51.8806,"RA_OF_ASC_NODE":141.3427,"ARG_OF_PERICENTER":43.9142,"MEAN_ANOMALY":316.1935,"EPHEMERIS_TYPE":0,"NORAD_CAT_ID":69770,"ELEMENT_SET_NO":999,"REV_AT_EPOCH":325,"BSTAR":0.00078810876,"MEAN_MOTION_DOT":0.00030454,"MEAN_MOTION_DDOT":0},{"OBJECT_NAME":"KUIPER-00611","OBJECT_ID":"2026-151J","EPOCH":"2026-07-23T05:34:16.795776","CLASSIFICATION_TYPE":"U","MEAN_MOTION":15.38626425,"ECCENTRICITY":0.0001367,"INCLINATION":51.8815,"RA_OF_ASC_NODE":141.3563,"ARG_OF_PERICENTER":107.3697,"MEAN_ANOMALY":252.744,"EPHEMERIS_TYPE":0,"NORAD_CAT_ID":69771,"ELEMENT_SET_NO":999,"REV_AT_EPOCH":325,"BSTAR":0.00071508658,"MEAN_MOTION_DOT":0.00027417,"MEAN_MOTION_DDOT":0},{"OBJECT_NAME":"KUIPER-00612","OBJECT_ID":"2026-151K","EPOCH":"2026-07-23T02:37:09.455808","CLASSIFICATION_TYPE":"U","MEAN_MOTION":15.38098923,"ECCENTRICITY":0.00036934,"INCLINATION":51.879,"RA_OF_ASC_NODE":142.0331,"ARG_OF_PERICENTER":144.3185,"MEAN_ANOMALY":215.805,"EPHEMERIS_TYPE":0,"NORAD_CAT_ID":69772,"ELEMENT_SET_NO":999,"REV_AT_EPOCH":323,"BSTAR":0.00072610333,"MEAN_MOTION_DOT":0.00027369,"MEAN_MOTION_DDOT":0},{"OBJECT_NAME":"KUIPER-00614","OBJECT_ID":"2026-151L","EPOCH":"2026-07-23T00:59:34.561536","CLASSIFICATION_TYPE":"U","MEAN_MOTION":15.38242293,"ECCENTRICITY":0.00032226,"INCLINATION":51.8797,"RA_OF_ASC_NODE":142.3282,"ARG_OF_PERICENTER":153.6537,"MEAN_ANOMALY":206.4614,"EPHEMERIS_TYPE":0,"NORAD_CAT_ID":69773,"ELEMENT_SET_NO":999,"REV_AT_EPOCH":322,"BSTAR":0.0007671614,"MEAN_MOTION_DOT":0.00029081,"MEAN_MOTION_DDOT":0},{"OBJECT_NAME":"KUIPER-00615","OBJECT_ID":"2026-151M","EPOCH":"2026-07-23T06:00:02.000160","CLASSIFICATION_TYPE":"U","MEAN_MOTION":15.34264948,"ECCENTRICITY":0.00063572,"INCLINATION":51.8778,"RA_OF_ASC_NODE":141.504,"ARG_OF_PERICENTER":176.1233,"MEAN_ANOMALY":176.6715,"EPHEMERIS_TYPE":0,"NORAD_CAT_ID":69774,"ELEMENT_SET_NO":999,"REV_AT_EPOCH":209,"BSTAR":0.0020080303,"MEAN_MOTION_DOT":0.00067889,"MEAN_MOTION_DDOT":0},{"OBJECT_NAME":"KUIPER-00616","OBJECT_ID":"2026-151N","EPOCH":"2026-07-23T02:29:37.663296","CLASSIFICATION_TYPE":"U","MEAN_MOTION":15.38499856,"ECCENTRICITY":0.0003438,"INCLINATION":51.8781,"RA_OF_ASC_NODE":142.0022,"ARG_OF_PERICENTER":159.7088,"MEAN_ANOMALY":200.4037,"EPHEMERIS_TYPE":0,"NORAD_CAT_ID":69775,"ELEMENT_SET_NO":999,"REV_AT_EPOCH":323,"BSTAR":0.0008924555,"MEAN_MOTION_DOT":0.00034208,"MEAN_MOTION_DDOT":0},{"OBJECT_NAME":"KUIPER-00617","OBJECT_ID":"2026-151P","EPOCH":"2026-07-23T05:47:01.646592","CLASSIFICATION_TYPE":"U","MEAN_MOTION":15.37911621,"ECCENTRICITY":0.00040947,"INCLINATION":51.8793,"RA_OF_ASC_NODE":141.4165,"ARG_OF_PERICENTER":169.5227,"MEAN_ANOMALY":190.5846,"EPHEMERIS_TYPE":0,"NORAD_CAT_ID":69776,"ELEMENT_SET_NO":999,"REV_AT_EPOCH":325,"BSTAR":0.00057688066,"MEAN_MOTION_DOT":0.00021514,"MEAN_MOTION_DDOT":0},{"OBJECT_NAME":"KUIPER-00619","OBJECT_ID":"2026-151Q","EPOCH":"2026-07-23T05:32:18.540096","CLASSIFICATION_TYPE":"U","MEAN_MOTION":15.38714521,"ECCENTRICITY":0.00013515,"INCLINATION":51.8817,"RA_OF_ASC_NODE":141.3479,"ARG_OF_PERICENTER":78.4198,"MEAN_ANOMALY":281.6941,"EPHEMERIS_TYPE":0,"NORAD_CAT_ID":69777,"ELEMENT_SET_NO":999,"REV_AT_EPOCH":325,"BSTAR":0.00072437398,"MEAN_MOTION_DOT":0.0002786,"MEAN_MOTION_DDOT":0},{"OBJECT_NAME":"KUIPER-00621","OBJECT_ID":"2026-151R","EPOCH":"2026-07-23T05:37:00.115104","CLASSIFICATION_TYPE":"U","MEAN_MOTION":15.38437028,"ECCENTRICITY":0.0001759,"INCLINATION":51.8794,"RA_OF_ASC_NODE":141.375,"ARG_OF_PERICENTER":129.0977,"MEAN_ANOMALY":231.0167,"EPHEMERIS_TYPE":0,"NORAD_CAT_ID":69778,"ELEMENT_SET_NO":999,"REV_AT_EPOCH":325,"BSTAR":0.0007577072,"MEAN_MOTION_DOT":0.000289,"MEAN_MOTION_DDOT":0},{"OBJECT_NAME":"KUIPER-00622","OBJECT_ID":"2026-151S","EPOCH":"2026-07-23T06:00:02.000160","CLASSIFICATION_TYPE":"U","MEAN_MOTION":15.34508982,"ECCENTRICITY":0.00070139,"INCLINATION":51.8738,"RA_OF_ASC_NODE":141.5183,"ARG_OF_PERICENTER":171.9423,"MEAN_ANOMALY":168.8632,"EPHEMERIS_TYPE":0,"NORAD_CAT_ID":69779,"ELEMENT_SET_NO":999,"REV_AT_EPOCH":388,"BSTAR":-0.020846837,"MEAN_MOTION_DOT":-0.00658722,"MEAN_MOTION_DDOT":0},{"OBJECT_NAME":"KUIPER-00623","OBJECT_ID":"2026-151T","EPOCH":"2026-07-23T05:53:57.438816","CLASSIFICATION_TYPE":"U","MEAN_MOTION":15.3751584,"ECCENTRICITY":0.00047566,"INCLINATION":51.8775,"RA_OF_ASC_NODE":141.4488,"ARG_OF_PERICENTER":157.0535,"MEAN_ANOMALY":203.0665,"EPHEMERIS_TYPE":0,"NORAD_CAT_ID":69780,"ELEMENT_SET_NO":999,"REV_AT_EPOCH":325,"BSTAR":0.00064807321,"MEAN_MOTION_DOT":0.00023915,"MEAN_MOTION_DDOT":0},{"OBJECT_NAME":"KUIPER-00626","OBJECT_ID":"2026-151U","EPOCH":"2026-07-23T04:58:32.636352","CLASSIFICATION_TYPE":"U","MEAN_MOTION":15.3456781,"ECCENTRICITY":0.00098734,"INCLINATION":51.8721,"RA_OF_ASC_NODE":141.9274,"ARG_OF_PERICENTER":191.6787,"MEAN_ANOMALY":168.3971,"EPHEMERIS_TYPE":0,"NORAD_CAT_ID":69781,"ELEMENT_SET_NO":999,"REV_AT_EPOCH":324,"BSTAR":0.00040953155,"MEAN_MOTION_DOT":0.00013586,"MEAN_MOTION_DDOT":0},{"OBJECT_NAME":"KUIPER-00627","OBJECT_ID":"2026-151V","EPOCH":"2026-07-23T01:55:18.486912","CLASSIFICATION_TYPE":"U","MEAN_MOTION":15.34409383,"ECCENTRICITY":0.0010462,"INCLINATION":51.87,"RA_OF_ASC_NODE":142.5708,"ARG_OF_PERICENTER":198.9015,"MEAN_ANOMALY":161.1584,"EPHEMERIS_TYPE":0,"NORAD_CAT_ID":69782,"ELEMENT_SET_NO":999,"REV_AT_EPOCH":322,"BSTAR":0.00053409491,"MEAN_MOTION_DOT":0.00017758,"MEAN_MOTION_DDOT":0}]}
