KUIPER-00589            
1 69767U 26151E   26204.25002315 -.01118571  00000+0 -38066-1 0  9991
2 69767  51.8761 141.4847 0005065 168.1269 176.8612 15.32780380  3891
KUIPER-00598            
1 69768U 26151F   26204.08192759  .00024699  00000+0  73953-3 0  9995
2 69768  51.8656 142.5700 0014816 191.8219 168.2421 15.34281910  3224
KUIPER-00604            
1 69769U 26151G   26204.10519738 -.00059555  00000+0 -15640-2 0  9998
2 69769  51.8797 142.0067 0002639 125.8861 234.2372 15.38119408  3238
KUIPER-00609            
1 69770U 26151H   26204.22945574  .00030454  00000+0  78811-3 0  9999
2 69770  51.8806 141.3427 0001117  43.9142 316.1935 15.38811111  3252
KUIPER-00611            
1 69771U 26151J   26204.23213884  .00027417  00000+0  71509-3 0  9995
2 69771  51.8815 141.3563 0001367 107.3697 252.7440 15.38626425  3259
KUIPER-00612            
1 69772U 26151K   26204.10913722  .00027369  00000+0  72610-3 0  9990
2 69772  51.8790 142.0331 0003693 144.3185 215.8050 15.38098923  3231
KUIPER-00614            
1 69773U 26151L   26204.04137224  .00029081  00000+0  76716-3 0  9993
2 69773  51.8797 142.3282 0003222 153.6537 206.4614 15.38242293  3221
KUIPER-00615            
1 69774U 26151M   26204.25002315  .00067889  00000+0  20080-2 0  9999
2 69774  51.8778 141.5040 0006357 176.1233 176.6715 15.34264948  2090
KUIPER-00616            
1 69775U 26151N   26204.10390814  .00034208  00000+0  89246-3 0  9997
2 69775  51.8781 142.0022 0003438 159.7088 200.4037 15.38499856  3235
KUIPER-00617            
1 69776U 26151P   26204.24099128  .00021514  00000+0  57688-3 0  9998
2 69776  51.8793 141.4165 0004094 169.5227 190.5846 15.37911621  3250
KUIPER-00619            
1 69777U 26151Q   26204.23077014  .00027860  00000+0  72437-3 0  9997
2 69777  51.8817 141.3479 0001351  78.4198 281.6941 15.38714521  3252
KUIPER-00621            
1 69778U 26151R   26204.23402911  .00028900  00000+0  75771-3 0  9996
2 69778  51.8794 141.3750 0001759 129.0977 231.0167 15.38437028  3252
KUIPER-00622            
1 69779U 26151S   26204.25002315 -.00658722  00000+0 -20847-1 0  9998
2 69779  51.8738 141.5183 0007013 171.9423 168.8632 15.34508982  3881
KUIPER-00623            
1 69780U 26151T   26204.24580369  .00023915  00000+0  64807-3 0  9993
2 69780  51.8775 141.4488 0004756 157.0535 203.0665 15.37515840  3254
KUIPER-00626            
1 69781U 26151U   26204.20732218  .00013586  00000+0  40953-3 0  9991
2 69781  51.8721 141.9274 0009873 191.6787 168.3971 15.34567810  3245
KUIPER-00627            
1 69782U 26151V   26204.08007508  .00017758  00000+0  53409-3 0  9990
2 69782  51.8700 142.5708 0010462 198.9015 161.1584 15.34409383  3221
